SL-14 R/B               
1 16792U 86046B   26019.57009376  .00000492  00000+0  53909-4 0  9998
2 16792  82.4836 126.5895 0023885  33.5831 326.6893 14.85531771119115
SL-14 R/B               
1 16882U 86055B   26019.50033571  .00000603  00000+0  66733-4 0  9998
2 16882  82.5210 172.8897 0020004 132.0979 291.6939 14.85576320112064
AJISAI (EGS)            
1 16908U 86061A   26019.64141506 -.00000072  00000+0  17805-3 0  9993
2 16908  50.0071 244.1731 0011291 161.1437 238.9017 12.44515102461891
COSMOS 1812             
1 17295U 87003A   26019.66379963  .00143196  00000+0  59429-3 0  9994
2 17295  82.4818 250.6777 0002164  45.0766 315.0679 15.85381652136647
SL-14 R/B               
1 17567U 87024B   26019.41936632  .00000557  00000+0  60602-4 0  9993
2 17567  82.5302 139.0603 0019598  66.0478 294.2789 14.86072281 80810
COSMOS 1833             
1 17589U 87027A   26019.59073461  .00000292  00000+0  18170-3 0  9999
2 17589  70.9193  69.2138 0024322 279.7402  80.0972 14.13047131  3389
SL-16 R/B               
1 17590U 87027B   26019.42422957 -.00000227  00000+0 -89001-4 0  9993
2 17590  71.0033  20.3074 0006285 219.0286 141.0385 14.17159522  8369
SL-14 R/B               
1 17912U 87038B   26019.38893845  .00000584  00000+0  65000-4 0  9993
2 17912  82.5030 343.2367 0018543 332.0803  27.9416 14.85305494 71918
COSMOS 1844             
1 17973U 87041A   26019.60696573 -.00000302  00000+0 -13175-3 0  9993
2 17973  70.8995 137.7051 0028253  96.6595 263.7744 14.14535821996642
SL-14 R/B               
1 18153U 87055B   26019.50904739  .00000474  00000+0  51814-4 0  9995
2 18153  82.4975  35.3849 0020846 171.9360 188.2195 14.85562407 62637
COSMOS 1867             
1 18187U 87060A   26019.53803815 -.00000009  00000+0  34272-4 0  9998
2 18187  65.0107  84.3530 0013907 274.7348  85.2148 14.31493287 12906
SL-14 R/B               
1 18749U 88001B   26019.56845106  .00000407  00000+0  44195-4 0  9996
2 18749  82.5109 241.5672 0019149  44.2806 315.9938 14.85464857 34738
