CCSDS_OMM_VERS = 2.0
CREATION_DATE  = 
ORIGINATOR     = 

OBJECT_NAME    = SL-14 R/B
OBJECT_ID      = 1986-046B
CENTER_NAME    = EARTH
REF_FRAME      = TEME
TIME_SYSTEM    = UTC
MEAN_ELEMENT_THEORY = SGP/SGP4

EPOCH          = 2026-01-19T13:40:56.100864
MEAN_MOTION    = 14.85531771
ECCENTRICITY   = .00238855
INCLINATION    = 82.4836
RA_OF_ASC_NODE = 126.5895
ARG_OF_PERICENTER = 33.5831
MEAN_ANOMALY   = 326.6893

EPHEMERIS_TYPE = 0
CLASSIFICATION_TYPE = U
NORAD_CAT_ID   = 16792
ELEMENT_SET_NO = 999
REV_AT_EPOCH   = 11911
BSTAR          = .53908781E-4
MEAN_MOTION_DOT = .492E-5
MEAN_MOTION_DDOT = 0

CCSDS_OMM_VERS = 2.0
CREATION_DATE  = 
ORIGINATOR     = 

OBJECT_NAME    = SL-14 R/B
OBJECT_ID      = 1986-055B
CENTER_NAME    = EARTH
REF_FRAME      = TEME
TIME_SYSTEM    = UTC
MEAN_ELEMENT_THEORY = SGP/SGP4

EPOCH          = 2026-01-19T12:00:29.005344
MEAN_MOTION    = 14.85576320
ECCENTRICITY   = .00200046
INCLINATION    = 82.5210
RA_OF_ASC_NODE = 172.8897
ARG_OF_PERICENTER = 132.0979
MEAN_ANOMALY   = 291.6939

EPHEMERIS_TYPE = 0
CLASSIFICATION_TYPE = U
NORAD_CAT_ID   = 16882
ELEMENT_SET_NO = 999
REV_AT_EPOCH   = 11206
BSTAR          = .66733055E-4
MEAN_MOTION_DOT = .603E-5
MEAN_MOTION_DDOT = 0

CCSDS_OMM_VERS = 2.0
CREATION_DATE  = 
ORIGINATOR     = 

OBJECT_NAME    = AJISAI (EGS)
OBJECT_ID      = 1986-061A
CENTER_NAME    = EARTH
REF_FRAME      = TEME
TIME_SYSTEM    = UTC
MEAN_ELEMENT_THEORY = SGP/SGP4

EPOCH          = 2026-01-19T15:23:38.261184
MEAN_MOTION    = 12.44515102
ECCENTRICITY   = .00112914
INCLINATION    = 50.0071
RA_OF_ASC_NODE = 244.1731
ARG_OF_PERICENTER = 161.1437
MEAN_ANOMALY   = 238.9017

EPHEMERIS_TYPE = 0
CLASSIFICATION_TYPE = U
NORAD_CAT_ID   = 16908
ELEMENT_SET_NO = 999
REV_AT_EPOCH   = 46189
BSTAR          = .1780524E-3
MEAN_MOTION_DOT = -.72E-6
MEAN_MOTION_DDOT = 0

CCSDS_OMM_VERS = 2.0
CREATION_DATE  = 
ORIGINATOR     = 

OBJECT_NAME    = COSMOS 1812
OBJECT_ID      = 1987-003A
CENTER_NAME    = EARTH
REF_FRAME      = TEME
TIME_SYSTEM    = UTC
MEAN_ELEMENT_THEORY = SGP/SGP4

EPOCH          = 2026-01-19T15:55:52.288032
MEAN_MOTION    = 15.85381652
ECCENTRICITY   = .00021647
INCLINATION    = 82.4818
RA_OF_ASC_NODE = 250.6777
ARG_OF_PERICENTER = 45.0766
MEAN_ANOMALY   = 315.0679

EPHEMERIS_TYPE = 0
CLASSIFICATION_TYPE = U
NORAD_CAT_ID   = 17295
ELEMENT_SET_NO = 999
REV_AT_EPOCH   = 13664
BSTAR          = .59428745E-3
MEAN_MOTION_DOT = .143196E-2
MEAN_MOTION_DDOT = 0

CCSDS_OMM_VERS = 2.0
CREATION_DATE  = 
ORIGINATOR     = 

OBJECT_NAME    = SL-14 R/B
OBJECT_ID      = 1987-024B
CENTER_NAME    = EARTH
REF_FRAME      = TEME
TIME_SYSTEM    = UTC
MEAN_ELEMENT_THEORY = SGP/SGP4

EPOCH          = 2026-01-19T10:03:53.250048
MEAN_MOTION    = 14.86072281
ECCENTRICITY   = .00195984
INCLINATION    = 82.5302
RA_OF_ASC_NODE = 139.0603
ARG_OF_PERICENTER = 66.0478
MEAN_ANOMALY   = 294.2789

EPHEMERIS_TYPE = 0
CLASSIFICATION_TYPE = U
NORAD_CAT_ID   = 17567
ELEMENT_SET_NO = 999
REV_AT_EPOCH   = 8081
BSTAR          = .60601844E-4
MEAN_MOTION_DOT = .557E-5
MEAN_MOTION_DDOT = 0

CCSDS_OMM_VERS = 2.0
CREATION_DATE  = 
ORIGINATOR     = 

OBJECT_NAME    = COSMOS 1833
OBJECT_ID      = 1987-027A
CENTER_NAME    = EARTH
REF_FRAME      = TEME
TIME_SYSTEM    = UTC
MEAN_ELEMENT_THEORY = SGP/SGP4

EPOCH          = 2026-01-19T14:10:39.470304
MEAN_MOTION    = 14.13047131
ECCENTRICITY   = .00243229
INCLINATION    = 70.9193
RA_OF_ASC_NODE = 69.2138
ARG_OF_PERICENTER = 279.7402
MEAN_ANOMALY   = 80.0972

EPHEMERIS_TYPE = 0
CLASSIFICATION_TYPE = U
NORAD_CAT_ID   = 17589
ELEMENT_SET_NO = 999
REV_AT_EPOCH   = 338
BSTAR          = .18169908E-3
MEAN_MOTION_DOT = .292E-5
MEAN_MOTION_DDOT = 0

CCSDS_OMM_VERS = 2.0
CREATION_DATE  = 
ORIGINATOR     = 

OBJECT_NAME    = SL-16 R/B
OBJECT_ID      = 1987-027B
CENTER_NAME    = EARTH
REF_FRAME      = TEME
TIME_SYSTEM    = UTC
MEAN_ELEMENT_THEORY = SGP/SGP4

EPOCH          = 2026-01-19T10:10:53.434848
MEAN_MOTION    = 14.17159522
ECCENTRICITY   = .00062852
INCLINATION    = 71.0033
RA_OF_ASC_NODE = 20.3074
ARG_OF_PERICENTER = 219.0286
MEAN_ANOMALY   = 141.0385

EPHEMERIS_TYPE = 0
CLASSIFICATION_TYPE = U
NORAD_CAT_ID   = 17590
ELEMENT_SET_NO = 999
REV_AT_EPOCH   = 836
BSTAR          = -.89001304E-4
MEAN_MOTION_DOT = -.227E-5
MEAN_MOTION_DDOT = 0

CCSDS_OMM_VERS = 2.0
CREATION_DATE  = 
ORIGINATOR     = 

OBJECT_NAME    = SL-14 R/B
OBJECT_ID      = 1987-038B
CENTER_NAME    = EARTH
REF_FRAME      = TEME
TIME_SYSTEM    = UTC
MEAN_ELEMENT_THEORY = SGP/SGP4

EPOCH          = 2026-01-19T09:20:04.282080
MEAN_MOTION    = 14.85305494
ECCENTRICITY   = .00185439
INCLINATION    = 82.5030
RA_OF_ASC_NODE = 343.2367
ARG_OF_PERICENTER = 332.0803
MEAN_ANOMALY   = 27.9416

EPHEMERIS_TYPE = 0
CLASSIFICATION_TYPE = U
NORAD_CAT_ID   = 17912
ELEMENT_SET_NO = 999
REV_AT_EPOCH   = 7191
BSTAR          = .65000497E-4
MEAN_MOTION_DOT = .584E-5
MEAN_MOTION_DDOT = 0

CCSDS_OMM_VERS = 2.0
CREATION_DATE  = 
ORIGINATOR     = 

OBJECT_NAME    = COSMOS 1844
OBJECT_ID      = 1987-041A
CENTER_NAME    = EARTH
REF_FRAME      = TEME
TIME_SYSTEM    = UTC
MEAN_ELEMENT_THEORY = SGP/SGP4

EPOCH          = 2026-01-19T14:34:01.839072
MEAN_MOTION    = 14.14535821
ECCENTRICITY   = .00282531
INCLINATION    = 70.8995
RA_OF_ASC_NODE = 137.7051
ARG_OF_PERICENTER = 96.6595
MEAN_ANOMALY   = 263.7744

EPHEMERIS_TYPE = 0
CLASSIFICATION_TYPE = U
NORAD_CAT_ID   = 17973
ELEMENT_SET_NO = 999
REV_AT_EPOCH   = 99664
BSTAR          = -.13175292E-3
MEAN_MOTION_DOT = -.302E-5
MEAN_MOTION_DDOT = 0

CCSDS_OMM_VERS = 2.0
CREATION_DATE  = 
ORIGINATOR     = 

OBJECT_NAME    = SL-14 R/B
OBJECT_ID      = 1987-055B
CENTER_NAME    = EARTH
REF_FRAME      = TEME
TIME_SYSTEM    = UTC
MEAN_ELEMENT_THEORY = SGP/SGP4

EPOCH          = 2026-01-19T12:13:01.694496
MEAN_MOTION    = 14.85562407
ECCENTRICITY   = .00208465
INCLINATION    = 82.4975
RA_OF_ASC_NODE = 35.3849
ARG_OF_PERICENTER = 171.9360
MEAN_ANOMALY   = 188.2195

EPHEMERIS_TYPE = 0
CLASSIFICATION_TYPE = U
NORAD_CAT_ID   = 18153
ELEMENT_SET_NO = 999
REV_AT_EPOCH   = 6263
BSTAR          = .51813548E-4
MEAN_MOTION_DOT = .474E-5
MEAN_MOTION_DDOT = 0

CCSDS_OMM_VERS = 2.0
CREATION_DATE  = 
ORIGINATOR     = 

OBJECT_NAME    = COSMOS 1867
OBJECT_ID      = 1987-060A
CENTER_NAME    = EARTH
REF_FRAME      = TEME
TIME_SYSTEM    = UTC
MEAN_ELEMENT_THEORY = SGP/SGP4

EPOCH          = 2026-01-19T12:54:46.496160
MEAN_MOTION    = 14.31493287
ECCENTRICITY   = .0013907
INCLINATION    = 65.0107
RA_OF_ASC_NODE = 84.3530
ARG_OF_PERICENTER = 274.7348
MEAN_ANOMALY   = 85.2148

EPHEMERIS_TYPE = 0
CLASSIFICATION_TYPE = U
NORAD_CAT_ID   = 18187
ELEMENT_SET_NO = 999
REV_AT_EPOCH   = 1290
BSTAR          = .34271788E-4
MEAN_MOTION_DOT = -.9E-7
MEAN_MOTION_DDOT = 0

CCSDS_OMM_VERS = 2.0
CREATION_DATE  = 
ORIGINATOR     = 

OBJECT_NAME    = SL-14 R/B
OBJECT_ID      = 1988-001B
CENTER_NAME    = EARTH
REF_FRAME      = TEME
TIME_SYSTEM    = UTC
MEAN_ELEMENT_THEORY = SGP/SGP4

EPOCH          = 2026-01-19T13:38:34.171584
MEAN_MOTION    = 14.85464857
ECCENTRICITY   = .0019149
INCLINATION    = 82.5109
RA_OF_ASC_NODE = 241.5672
ARG_OF_PERICENTER = 44.2806
MEAN_ANOMALY   = 315.9938

EPHEMERIS_TYPE = 0
CLASSIFICATION_TYPE = U
NORAD_CAT_ID   = 18749
ELEMENT_SET_NO = 999
REV_AT_EPOCH   = 3473
BSTAR          = .44194818E-4
MEAN_MOTION_DOT = .407E-5
MEAN_MOTION_DDOT = 0

